78P/Gehrels,e,6.2568,210.5310,192.6886,3.735483,0.1365161,0.46318084,250.3838,04/13.0/2024,2000,g  5.5,8.0
# From MPC 94675
79P/du Toit-Hartley,e,3.1488,281.7716,280.5250,2.943766,0.1951413,0.61920312,38.1795,04/13.0/2024,2000,g 16.0,4.0
# From MPEC 2023-RF3
80P/Peters-Hartley,e,29.9238,259.7827,339.2767,4.022781,0.1221559,0.59820815,60.0078,04/13.0/2024,2000,g  9.0,8.0
# From MPEC 2024-F91
81P/Wild,e,3.2368,136.0936,41.5880,3.452782,0.1536209,0.53727432,74.4175,04/13.0/2024,2000,g  7.0,6.0
# From MPC133426
82P/Gehrels,e,1.1292,239.2336,226.4126,4.132272,0.1173332,0.12245698,248.8834,04/13.0/2024,2000,g 15.0,4.0
# From NK 932
83D/Russell,e,17.8263,226.3054,334.4308,3.843947,0.1307790,0.44134222,138.1794,04/13.0/2024,2000,g  9.0,4.0
# From MPEC 2020-FB5
84P/Giclas,e,7.5513,108.1598,281.6509,3.550093,0.1473481,0.51602397,207.4754,04/13.0/2024,2000,g  9.5,8.0
# From unp
85D/Boethin,e,4.1742,65.2841,333.0726,5.044219,0.0869988,0.77628787,117.6813,04/13.0/2024,2000,g  6.5,8.0
# From MPEC 2022-YB4
86P/Wild,e,15.5176,72.1116,180.5589,3.623698,0.1428815,0.37031978,113.4952,04/13.0/2024,2000,g 11.0,6.0
# From MPEC 2020-SI8
87P/Bus,e,2.7379,186.9150,51.0944,4.284139,0.1111498,0.23793454,161.2734,04/13.0/2024,2000,g  7.2,10.0
# From MPEC 2024-C04
88P/Howell,e,4.3820,56.6663,235.9201,3.107234,0.1799464,0.56321968,233.1582,04/13.0/2024,2000,g 11.0,6.0
# From MPEC 2023-J29
89P/Russell,e,12.0720,41.3455,250.4013,3.751608,0.1356369,0.40776234,2.3592,04/13.0/2024,2000,g 11.5,6.0
# From MPEC 2022-K19
90P/Gehrels,e,9.6478,13.2140,29.1146,6.052111,0.0661978,0.51111555,164.5340,04/13.0/2024,2000,g  8.5,6.0
# From MPEC 2023-VM5
91P/Russell,e,16.2651,242.9418,359.4061,3.939968,0.1260274,0.31978829,160.6598,04/13.0/2024,2000,g  7.5,6.0
# From MPEC 2014-J58
92P/Sanguin,e,19.4940,181.3769,163.8013,5.342893,0.0798067,0.66050636,265.1971,04/13.0/2024,2000,g 12.0,6.0
# From NK 2707
93P/Lovas,e,12.2052,339.5804,74.9494,4.377105,0.1076276,0.61400039,279.2993,04/13.0/2024,2000,g  9.0,4.0
# From MPEC 2024-F91
94P/Russell,e,6.1879,70.8519,92.4020,3.510576,0.1498430,0.36568660,49.1418,04/13.0/2024,2000,g  9.0,6.0
# From MPC 75717
95P/Chiron,e,6.9227,209.1990,339.4018,13.70978,0.0194159,0.37686854,201.2294,04/13.0/2024,2000,g  6.5,2.0
# From MPEC 2023-N01
96P/Machholz,e,57.5474,93.9553,14.7414,3.030837,0.1867928,0.96162917,81.7945,04/13.0/2024,2000,g 13.0,4.8
# From MPC106348
96P-B/Machholz,e,57.5039,14.7148,93.9543,3.030107,0.1868603,0.96163905,81.8258,04/13.0/2024,2000,g 13.0,4.8
# From MPC103849
96P-C/Machholz,e,58.5311,94.3495,15.5380,3.011920,0.1885553,0.95889850,359.8715,07/14.0/2012,2000,g  9.0,4.0
# From MPEC 2024-F34
97P/Metcalf-Brewington,e,17.9484,184.0803,230.1064,4.766551,0.0947104,0.46028982,74.5378,04/13.0/2024,2000,g  5.5,6.0
# From MPEC 2021-W31
98P/Takamizawa,e,10.5731,114.6294,157.7283,3.789617,0.1336014,0.56276611,159.6476,04/13.0/2024,2000,g  9.0,8.0
# From MPEC 2024-A43
99P/Kowal,e,4.3393,28.0926,174.6642,6.096935,0.0654691,0.22852758,48.0492,04/13.0/2024,2000,g  4.5,6.0
# From MPEC 2023-OA6
100P/Hartley,e,25.5673,37.6856,181.9659,3.430598,0.1551134,0.41163753,94.8111,04/13.0/2024,2000,g  9.0,8.0
# From MPEC 2024-EF7
101P/Chernykh,e,5.0492,116.1598,277.8882,5.813560,0.0703138,0.59623224,109.0930,04/13.0/2024,2000,g 10.0,4.8
# From MPC105241
101P-B/Chernykh,e,5.0499,278.5466,115.5039,5.829049,0.0700338,0.59644292,107.4135,04/13.0/2024,2000,g  9.0,4.0
# From MPEC 2022-C56
102P/Shoemaker,e,25.8702,339.4104,20.6645,3.818498,0.1320885,0.45660535,155.4114,04/13.0/2024,2000,g  6.5,8.0
# From MPEC 2024-F34
103P/Hartley,e,13.6107,219.7491,181.3013,3.474408,0.1521888,0.69372475,27.9256,04/13.0/2024,2000,g  8.5,8.0
# From MPEC 2023-G31
104P/Kowal,e,5.7031,207.2075,227.2585,3.208677,0.1714806,0.66587766,140.9662,04/13.0/2024,2000,g 16.0,4.0
# From MPEC 2024-F34
105P/SingerBrewster,e,9.1682,192.3975,46.3611,3.471493,0.1523806,0.40892231,316.5963,04/13.0/2024,2000,g 11.5,6.0
# From MPEC 2023-UR6
106P/Schuster,e,19.5405,48.8622,353.7702,3.767083,0.1348020,0.59390179,130.4783,04/13.0/2024,2000,g 14.0,4.8
# From MPEC 2015-M77
107P/Wilson-Harrington,e,2.7986,266.7480,95.4985,2.625277,0.2317081,0.63139338,138.4269,04/13.0/2024,2000,g  9.0,4.0
# From MPEC 2022-P82
108P/Ciffreo,e,11.4362,50.2977,354.5017,3.742560,0.1361291,0.55606122,128.7222,04/13.0/2024,2000,g  8.0,12.0
# From  105, 420
109P/Swift-Tuttle,e,113.4466,139.4571,153.2140,26.21236,0.0073442,0.96259165,84.0026,04/13.0/2024,2000,g  4.0,6.0
# From MPEC 2023-KD6
110P/Hartley,e,11.7077,287.4912,167.5023,3.603905,0.1440602,0.31901570,130.6975,04/13.0/2024,2000,g  1.0,12.0
# From MPC 75718
111P/Helin-Roman-Crockett,e,4.2259,89.8131,1.2167,4.152197,0.1164896,0.10712714,119.9898,04/13.0/2024,2000,g  5.0,8.0
# From MPEC 2021-S45
112P/Urata-Niijima,e,24.2095,31.8336,21.5011,3.523566,0.1490152,0.59084895,227.1349,04/13.0/2024,2000,g 14.0,6.0
# From MPEC 2023-VM5
113P/Spitaler,e,5.2877,306.6552,115.6379,3.694336,0.1388032,0.41994246,94.5641,04/13.0/2024,2000,g 13.5,4.0
# From MPEC 2023-A50
114P/Wiseman-Skiff,e,18.3010,271.0241,172.7668,3.541592,0.1478789,0.55593967,229.1365,04/13.0/2024,2000,g 11.5,6.0
# From MPEC 2023-J29
115P/Maury,e,11.6770,176.0139,120.9658,4.272116,0.1116193,0.51754841,151.2317,04/13.0/2024,2000,g 10.5,6.0
# From MPEC 2023-VM5
116P/Wild,e,3.6035,20.9703,173.2048,3.487579,0.1513276,0.37032309,96.2978,04/13.0/2024,2000,g  2.5,10.0
# From MPEC 2024-F91
117P/Helin-Roman-Alu,e,8.7056,58.8138,223.6161,4.095365,0.1189228,0.25600312,76.3906,04/13.0/2024,2000,g  2.5,8.0
# From MPEC 2024-F91
118P/Shoemaker-Levy,e,10.0902,142.0835,314.8858,3.348243,0.1608713,0.45371832,81.3261,04/13.0/2024,2000,g 12.0,4.0
# From MPEC 2024-F34
119P/Parker-Hartley,e,7.3923,104.5574,322.1789,3.807503,0.1326611,0.38837416,80.8833,04/13.0/2024,2000,g  3.5,8.0
# From MPEC 2022-CN4
120P/Mueller,e,8.4866,358.7229,36.7156,3.968008,0.1246939,0.37469632,133.5705,04/13.0/2024,2000,g 12.0,4.0
# From MPEC 2024-EF7
121P/Shoemaker-Holt,e,20.1628,94.1116,11.7542,4.585864,0.1003627,0.18650315,28.9679,04/13.0/2024,2000,g  6.5,8.0
# From MPC 75718
122P/de Vico,e,85.9460,79.7272,12.9925,17.62820,0.0133166,0.96246668,138.9464,04/13.0/2024,2000,g  7.5,5.2
# From MPEC 2021-F20
123P/West-Hartley,e,15.2801,45.9020,104.0172,3.881625,0.1288795,0.44429722,244.9566,04/13.0/2024,2000,g 12.2,4.0
# From MPEC 2023-T65
124P/Mrkos,e,31.4471,0.0642,185.1773,3.373361,0.1590779,0.48676461,232.4534,04/13.0/2024,2000,g 13.5,2.8
# From MPEC 2024-F34
125P/Spacewatch,e,9.9848,153.1499,87.1393,3.129281,0.1780480,0.51212715,6.5355,04/13.0/2024,2000,g 13.0,6.0
# From MPEC 2024-F91
126P/IRAS,e,45.8707,357.8608,356.5792,5.633481,0.0737121,0.69639892,20.8402,04/13.0/2024,2000,g  6.0,8.0
# From MPEC 2024-AF0
127P/Holt-Olmstead,e,14.3004,13.6087,6.3094,3.452880,0.1536144,0.35926065,93.9502,04/13.0/2024,2000,g 11.0,6.0
# From MPC 89014
128P/Shoemaker-Holt,e,4.3703,214.3394,210.3638,4.485310,0.1037565,0.32238040,274.4686,04/13.0/2024,2000,g  8.5,4.0
# From MPEC 2024-F34
129P/Shoemaker-Levy,e,3.4422,184.8608,307.5624,4.291761,0.1108538,0.08559845,55.3134,04/13.0/2024,2000,g 11.0,4.0
# From MPEC 2024-F34
130P/McNaught-Hughes,e,6.0636,70.1786,246.1280,3.381232,0.1585228,0.46085189,359.7013,04/13.0/2024,2000,g 10.0,6.0
# From MPC102101
131P/Mueller,e,7.3606,214.1777,179.1242,3.676932,0.1397899,0.34492047,265.8757,04/13.0/2024,2000,g 11.0,4.0
# From MPEC 2024-BE0
132P/Helin-Roman-Alu,e,5.3812,173.9943,216.4569,3.890568,0.1284353,0.56455610,113.2485,04/13.0/2024,2000,g 11.0,6.0
# From MPC 94676
133P/Elst-Pizarro,e,1.3897,160.1017,131.9177,3.164421,0.1750906,0.15601849,355.2145,04/13.0/2024,2000,g 15.4,2.0
# From MPC 89012
134P/Kowal-Vavrova,e,4.3348,202.0106,18.7657,6.267645,0.0628127,0.58513944,228.1062,04/13.0/2024,2000,g 11.5,4.0
# From MPEC 2024-C04
135P/Shoemaker-Levy,e,6.0639,213.0190,22.4014,3.800584,0.1330235,0.29418114,98.0000,04/13.0/2024,2000,g  7.0,8.0
# From MPEC 2022-K19
136P/Mueller,e,9.4280,137.4964,225.1614,4.186150,0.1150753,0.29324597,329.4755,04/13.0/2024,2000,g 11.0,4.0
# From MPEC 2023-J29
137P/Shoemaker-Levy,e,4.8604,232.9250,141.2188,4.522417,0.1024821,0.57355361,199.3861,04/13.0/2024,2000,g 11.0,4.0
# From MPEC 2016-U66
138P/Shoemaker-Levy,e,10.0962,309.2886,95.6310,3.618842,0.1431692,0.53162597,258.3259,04/13.0/2024,2000,g 15.0,6.0
# From MPEC 2020-HN5
139P/Vaisala-Oterma,e,2.3374,242.1814,165.8512,4.515987,0.1027011,0.24834261,237.2745,04/13.0/2024,2000,g  9.5,4.0
# From MPEC 2015-E14
140P/Bowell-Skiff,e,3.7773,343.3420,172.3347,6.406395,0.0607832,0.69603665,193.6985,04/13.0/2024,2000,g 11.5,6.0
# From MPEC 2022-K19
141P/Machholz,e,13.9555,241.8096,153.6037,3.057516,0.1843534,0.73607787,223.6076,04/13.0/2024,2000,g 12.0,12.0
# From MPEC 2015-KD9
141P-A/Machholz,e,13.9432,153.5489,241.8779,3.057648,0.1843414,0.73607592,223.5606,04/13.0/2024,2000,g 12.0,12.0
# From MPC 24216
141P-B/Machholz,e,13.9871,153.6246,241.7672,3.056036,0.1844873,0.73583401,224.9242,04/13.0/2024,2000,g  9.0,4.0
# From MPC 37026
141P-D/Machholz,e,13.8352,153.2759,242.1255,3.066106,0.1835791,0.73703014,219.4931,04/13.0/2024,2000,g  9.0,4.0
# From MPEC 2015-R12
141P-E/Machholz,e,12.8152,246.1856,149.2667,3.012914,0.1884620,0.75023267,359.9529,09/19.0/1994,2000,g  9.0,4.0
# From MPEC 2015-R12
141P-F/Machholz,e,12.7898,246.1881,149.2374,3.010224,0.1887147,0.75000946,359.9630,09/19.0/1994,2000,g  9.0,4.0
# From MPEC 2015-R12
141P-G/Machholz,e,12.8259,246.3146,149.0784,3.005818,0.1891298,0.74964304,359.9802,09/19.0/1994,2000,g  9.0,4.0
# From MPC 95735
141P-H/Machholz,e,12.8431,246.0900,149.4500,3.008012,0.1889230,0.74682218,359.9270,08/24.0/2015,2000,g 18.5,4.0
# From MPEC 2022-SU8
141P-I/Machholz,e,13.9431,153.5033,241.8881,3.048128,0.1852057,0.73530145,224.7216,04/13.0/2024,2000,g 17.5,4.0
# From MPEC 2024-C04
142P/Ge-Wang,e,12.2495,175.9445,174.0729,5.002419,0.0880915,0.49658032,93.9590,04/13.0/2024,2000,g  8.5,6.0
# From MPEC 2023-XP6
143P/Kowal-Mrkos,e,5.0723,243.7563,320.5805,4.259870,0.1121010,0.42837950,245.4722,04/13.0/2024,2000,g 13.5,2.0
